[{"OBJECT_NAME":"BANDWAGON-2 OBJECT D","OBJECT_ID":"2024-247D","EPOCH":"2026-03-09T12:32:33.670752","MEAN_MOTION":15.29076102,"ECCENTRICITY":0.00034883,"INCLINATION":44.9954,"RA_OF_ASC_NODE":115.671,"ARG_OF_PERICENTER":351.1453,"MEAN_ANOMALY":8.9368,"EPHEMERIS_TYPE":0,"CLASSIFICATION_TYPE":"U","NORAD_CAT_ID":62380,"ELEMENT_SET_NO":999,"REV_AT_EPOCH":6773,"BSTAR":0.00040119131,"MEAN_MOTION_DOT":0.00011259,"MEAN_MOTION_DDOT":0},{"OBJECT_NAME":"STARLINK-34711","OBJECT_ID":"2025-157J","EPOCH":"2026-03-09T01:08:10.094784","MEAN_MOTION":15.30186348,"ECCENTRICITY":0.00011868,"INCLINATION":53.1607,"RA_OF_ASC_NODE":348.7835,"ARG_OF_PERICENTER":85.5411,"MEAN_ANOMALY":274.5725,"EPHEMERIS_TYPE":0,"CLASSIFICATION_TYPE":"U","NORAD_CAT_ID":64912,"ELEMENT_SET_NO":999,"REV_AT_EPOCH":3602,"BSTAR":0.00060582939,"MEAN_MOTION_DOT":0.00017619,"MEAN_MOTION_DDOT":0}]
